[{"OBJECT_NAME":"STARLINK-5733","OBJECT_ID":"2023-083BB","EPOCH":"2026-03-09T22:00:01.999584","MEAN_MOTION":15.06149978,"ECCENTRICITY":5.681e-5,"INCLINATION":43.0007,"RA_OF_ASC_NODE":67.2319,"ARG_OF_PERICENTER":318.587,"MEAN_ANOMALY":202.4702,"EPHEMERIS_TYPE":0,"CLASSIFICATION_TYPE":"U","NORAD_CAT_ID":56925,"ELEMENT_SET_NO":999,"REV_AT_EPOCH":577,"BSTAR":0.0040606094,"MEAN_MOTION_DOT":0.00060736,"MEAN_MOTION_DDOT":0},{"OBJECT_NAME":"GRBBETA","OBJECT_ID":"2024-128C","EPOCH":"2026-03-09T16:58:19.607232","MEAN_MOTION":15.05794613,"ECCENTRICITY":0.0051339,"INCLINATION":61.9904,"RA_OF_ASC_NODE":205.0764,"ARG_OF_PERICENTER":114.1677,"MEAN_ANOMALY":246.4795,"EPHEMERIS_TYPE":0,"CLASSIFICATION_TYPE":"U","NORAD_CAT_ID":60237,"ELEMENT_SET_NO":999,"REV_AT_EPOCH":9128,"BSTAR":0.00046403869,"MEAN_MOTION_DOT":6.748e-5,"MEAN_MOTION_DDOT":0}]
